
# Worst residual: 18.72 km
# MJD 60058.000000 (2023 Apr 24  0:00)
2011-037A = Spektr-R = NORAD 37755
1 37755U 11037A   23114.49919926  .00000000  00000-0  00000-0 0 18168
2 37755 041.7501 112.9432 6527254 196.9465 252.7860 00.09992995    02

# Worst residual: 33.57 km
# MJD 60059.000000 (2023 Apr 25  0:00)
2011-037A = Spektr-R = NORAD 37755
1 37755U 11037A   23115.49919926  .00000000  00000-0  00000-0 0 18169
2 37755 041.8043 112.9424 6540062 196.7834 289.3406 00.09942231    05

# Worst residual: 86.58 km
# MJD 60060.000000 (2023 Apr 26  0:00)
2011-037A = Spektr-R = NORAD 37755
1 37755U 11037A   23116.49919926  .00000000  00000-0  00000-0 0 18160
2 37755 041.9182 113.0591 6579382 196.2949 325.9112 00.09763958    04

# Worst residual: 224.26 km
# MJD 60061.000000 (2023 Apr 27  0:00)
2011-037A = Spektr-R = NORAD 37755
1 37755U 11037A   23117.49919926  .00000000  00000-0  00000-0 0 18161
2 37755 042.0012 113.2679 6702436 196.7768 001.0034 00.09396464    08

# Worst residual: 101.90 km
# MJD 60062.000000 (2023 Apr 28  0:00)
2011-037A = Spektr-R = NORAD 37755
1 37755U 11037A   23118.49919926  .00000000  00000-0  00000-0 0 18162
2 37755 041.9202 113.2250 6598992 198.0039 035.5336 00.09589564    00

# Worst residual: 56.64 km
# MJD 60063.000000 (2023 Apr 29  0:00)
2011-037A = Spektr-R = NORAD 37755
1 37755U 11037A   23119.49919926  .00000000  00000-0  00000-0 0 18163
2 37755 041.8316 113.2068 6529802 197.3810 072.2901 00.09856111    06

# Worst residual: 34.05 km
# MJD 60064.000000 (2023 Apr 30  0:00)
2011-037A = Spektr-R = NORAD 37755
1 37755U 11037A   23120.49919926  .00000000  00000-0  00000-0 0 18165
2 37755 041.7977 113.1823 6515697 196.9470 109.1817 00.09961416    01

# Worst residual: 20.62 km
# MJD 60065.000000 (2023 May  1  0:00)
2011-037A = Spektr-R = NORAD 37755
1 37755U 11037A   23121.49919926  .00000000  00000-0  00000-0 0 18166
2 37755 041.8482 113.1536 6514222 196.7012 146.0001 00.10006299    03

# Worst residual: 16.23 km
# MJD 60066.000000 (2023 May  2  0:00)
2011-037A = Spektr-R = NORAD 37755
1 37755U 11037A   23122.49919926  .00000000  00000-0  00000-0 0 18167
2 37755 041.9670 113.1576 6517740 196.5533 182.6437 00.10023384    04

# Worst residual: 9.51 km
# MJD 60067.000000 (2023 May  3  0:00)
2011-037A = Spektr-R = NORAD 37755
1 37755U 11037A   23123.49919926  .00000000  00000-0  00000-0 0 18168
2 37755 042.0934 113.1943 6522159 196.4967 218.9877 00.10027475    03

# Worst residual: 5.47 km
# MJD 60068.000000 (2023 May  4  0:00)
2011-037A = Spektr-R = NORAD 37755
1 37755U 11037A   23124.49919926  .00000000  00000-0  00000-0 0 18169
2 37755 042.1688 113.2192 6524414 196.5636 254.9967 00.10033669    09

# Worst residual: 17.03 km
# MJD 60069.000000 (2023 May  5  0:00)
2011-037A = Spektr-R = NORAD 37755
1 37755U 11037A   23125.49919926  .00000000  00000-0  00000-0 0 18160
2 37755 042.1801 113.1857 6519040 196.7865 290.7359 00.10060691    06

# Worst residual: 51.02 km
# MJD 60070.000000 (2023 May  6  0:00)
2011-037A = Spektr-R = NORAD 37755
1 37755U 11037A   23126.49919926  .00000000  00000-0  00000-0 0 18161
2 37755 042.1737 113.1740 6487594 197.0636 326.3785 00.10156597    03

# Worst residual: 126.49 km
# MJD 60071.000000 (2023 May  7  0:00)
2011-037A = Spektr-R = NORAD 37755
1 37755U 11037A   23127.49919926  .00000000  00000-0  00000-0 0 18162
2 37755 042.0234 113.2551 6431955 196.3924 002.8778 00.10253184    05

# Worst residual: 58.59 km
# MJD 60072.000000 (2023 May  8  0:00)
2011-037A = Spektr-R = NORAD 37755
1 37755U 11037A   23128.49919926  .00000000  00000-0  00000-0 0 18163
2 37755 042.1243 112.9478 6499826 196.4164 038.6722 00.10053799    04

# Worst residual: 21.59 km
# MJD 60073.000000 (2023 May  9  0:00)
2011-037A = Spektr-R = NORAD 37755
1 37755U 11037A   23129.49919926  .00000000  00000-0  00000-0 0 18164
2 37755 042.2340 112.8973 6519280 196.9188 073.5849 00.09931768    07

# Worst residual: 8.68 km
# MJD 60074.000000 (2023 May 10  0:00)
2011-037A = Spektr-R = NORAD 37755
1 37755U 11037A   23130.49919926  .00000000  00000-0  00000-0 0 18166
2 37755 042.1790 112.9138 6517686 197.1368 108.7425 00.09900379    05

# Worst residual: 7.37 km
# MJD 60075.000000 (2023 May 11  0:00)
2011-037A = Spektr-R = NORAD 37755
1 37755U 11037A   23131.49919926  .00000000  00000-0  00000-0 0 18167
2 37755 042.0758 112.8950 6518212 197.2374 144.1511 00.09899859    03

# Worst residual: 3.97 km
# MJD 60076.000000 (2023 May 12  0:00)
2011-037A = Spektr-R = NORAD 37755
1 37755U 11037A   23132.49919926  .00000000  00000-0  00000-0 0 18168
2 37755 042.0516 112.8626 6522244 197.3273 179.6522 00.09906912    08

# Worst residual: 9.30 km
# MJD 60077.000000 (2023 May 13  0:00)
2011-037A = Spektr-R = NORAD 37755
1 37755U 11037A   23133.49919926  .00000000  00000-0  00000-0 0 18169
2 37755 042.1360 112.8795 6524888 197.4315 215.0603 00.09915151    07

# Worst residual: 13.81 km
# MJD 60078.000000 (2023 May 14  0:00)
2011-037A = Spektr-R = NORAD 37755
1 37755U 11037A   23134.49919926  .00000000  00000-0  00000-0 0 18160
2 37755 042.2507 112.9461 6521177 197.5809 250.2546 00.09932135    07

# Worst residual: 32.00 km
# MJD 60079.000000 (2023 May 15  0:00)
2011-037A = Spektr-R = NORAD 37755
1 37755U 11037A   23135.49919926  .00000000  00000-0  00000-0 0 18161
2 37755 042.3005 112.9768 6505933 197.8703 285.2285 00.09982786    04

# Worst residual: 75.57 km
# MJD 60080.000000 (2023 May 16  0:00)
2011-037A = Spektr-R = NORAD 37755
1 37755U 11037A   23136.49919926  .00000000  00000-0  00000-0 0 18162
2 37755 042.2668 112.8996 6457240 198.4031 320.1323 00.10145673    08

# Worst residual: 184.59 km
# MJD 60081.000000 (2023 May 17  0:00)
2011-037A = Spektr-R = NORAD 37755
1 37755U 11037A   23137.49919926  .00000000  00000-0  00000-0 0 18163
2 37755 042.2027 112.7907 6345371 197.8022 356.4491 00.10387095    06

# Worst residual: 90.68 km
# MJD 60082.000000 (2023 May 18  0:00)
2011-037A = Spektr-R = NORAD 37755
1 37755U 11037A   23138.49919926  .00000000  00000-0  00000-0 0 18164
2 37755 042.2893 112.6706 6421083 196.9079 033.0026 00.10219031    06

# Worst residual: 41.11 km
# MJD 60083.000000 (2023 May 19  0:00)
2011-037A = Spektr-R = NORAD 37755
1 37755U 11037A   23139.49919926  .00000000  00000-0  00000-0 0 18165
2 37755 042.4800 112.5698 6470551 197.4840 067.9352 00.10035547    07

# Worst residual: 11.98 km
# MJD 60084.000000 (2023 May 20  0:00)
2011-037A = Spektr-R = NORAD 37755
1 37755U 11037A   23140.49919926  .00000000  00000-0  00000-0 0 18167
2 37755 042.6318 112.5185 6473901 197.8345 103.1915 00.09986730    05

# Worst residual: 11.47 km
# MJD 60085.000000 (2023 May 21  0:00)
2011-037A = Spektr-R = NORAD 37755
1 37755U 11037A   23141.49919926  .00000000  00000-0  00000-0 0 18168
2 37755 042.7803 112.4981 6471670 197.9321 138.9610 00.09985812    02
